start=new Date('2022-05-07T00:00:00.000Z').valueOf();
sats=[{"BSTAR":"-0.00033626000000","LAUNCH_DATE":"2022-03-09","RA_OF_ASC_NODE":"212.5983","CLASSIFICATION_TYPE":"U","RCS_SIZE":"LARGE","OBJECT_NAME":"STARLINK-3654","PERIOD":"91.531","EPHEMERIS_TYPE":"0","INCLINATION":"53.2142","REV_AT_EPOCH":"372","DECAY_DATE":null,"COUNTRY_CODE":"US","ARG_OF_PERICENTER":"15.9511","PERIAPSIS":"347.833","APOAPSIS":"351.518","TIME_SYSTEM":"UTC","MEAN_ELEMENT_THEORY":"SGP4","TLE_LINE1":"1 52003U 22025AZ  22126.58334491 -.00047618  00000-0 -33626-3 0  9992","MEAN_MOTION_DDOT":"0.0000000000000","OBJECT_ID":"2022-025AZ","MEAN_MOTION_DOT":"-0.00047618","NORAD_CAT_ID":"52003","FILE":"3432208","EPOCH":"2022-05-06T14:00:01.000224","TLE_LINE2":"2 52003  53.2142 212.5983 0002739  15.9511 248.9208 15.73229726  3721","ELEMENT_SET_NO":"999","SITE":"AFETR","REF_FRAME":"TEME","MEAN_MOTION":"15.73229726","CENTER_NAME":"EARTH","SEMIMAJOR_AXIS":"6727.810","ECCENTRICITY":"0.00027390","GP_ID":"202864507","OBJECT_TYPE":"PAYLOAD","MEAN_ANOMALY":"248.9208"},{"MEAN_MOTION_DOT":"-0.00048690","MEAN_MOTION_DDOT":"0.0000000000000","NORAD_CAT_ID":"52088","OBJECT_ID":"2022-029A","TLE_LINE1":"1 52088U 22029A   22126.58334491 -.00048690  00000-0 -29473-3 0  9995","MEAN_ELEMENT_THEORY":"SGP4","TIME_SYSTEM":"UTC","APOAPSIS":"341.213","PERIAPSIS":"338.044","ARG_OF_PERICENTER":"28.0064","COUNTRY_CODE":"US","DECAY_DATE":null,"REV_AT_EPOCH":"250","INCLINATION":"53.2106","EPHEMERIS_TYPE":"0","PERIOD":"91.326","OBJECT_NAME":"STARLINK-3537","RCS_SIZE":"LARGE","CLASSIFICATION_TYPE":"U","RA_OF_ASC_NODE":"259.4425","LAUNCH_DATE":"2022-03-19","BSTAR":"-0.00029473000000","MEAN_ANOMALY":"148.2639","OBJECT_TYPE":"PAYLOAD","GP_ID":"202864401","ECCENTRICITY":"0.00023590","SEMIMAJOR_AXIS":"6717.763","CENTER_NAME":"EARTH","MEAN_MOTION":"15.76760467","REF_FRAME":"TEME","ELEMENT_SET_NO":"999","SITE":"AFETR","TLE_LINE2":"2 52088  53.2106 259.4425 0002359  28.0064 148.2639 15.76760467  2501","EPOCH":"2022-05-06T14:00:01.000224","FILE":"3432208"},{"INCLINATION":"53.2171","PERIOD":"93.840","EPHEMERIS_TYPE":"0","OBJECT_NAME":"STARLINK-3722","CLASSIFICATION_TYPE":"U","RCS_SIZE":"LARGE","LAUNCH_DATE":"2022-03-19","RA_OF_ASC_NODE":"267.9714","BSTAR":"-0.02294200000000","TLE_LINE1":"1 52089U 22029B   22126.91667824 -.00718487  00000-0 -22942-1 0  9992","MEAN_MOTION_DOT":"-0.00718487","MEAN_MOTION_DDOT":"0.0000000000000","OBJECT_ID":"2022-029B","NORAD_CAT_ID":"52089","APOAPSIS":"463.226","TIME_SYSTEM":"UTC","MEAN_ELEMENT_THEORY":"SGP4","PERIAPSIS":"461.458","ARG_OF_PERICENTER":"91.9002","DECAY_DATE":null,"COUNTRY_CODE":"US","REV_AT_EPOCH":"885","REF_FRAME":"TEME","TLE_LINE2":"2 52089  53.2171 267.9714 0001292  91.9002 162.2342 15.34522316  8859","EPOCH":"2022-05-06T22:00:00.999936","ELEMENT_SET_NO":"999","SITE":"AFETR","FILE":"3432641","MEAN_ANOMALY":"162.2342","OBJECT_TYPE":"PAYLOAD","ECCENTRICITY":"0.00012920","GP_ID":"202874588","SEMIMAJOR_AXIS":"6840.477","MEAN_MOTION":"15.34522316","CENTER_NAME":"EARTH"},{"DECAY_DATE":null,"COUNTRY_CODE":"US","REV_AT_EPOCH":"880","TIME_SYSTEM":"UTC","APOAPSIS":"460.736","MEAN_ELEMENT_THEORY":"SGP4","TLE_LINE1":"1 52090U 22029C   22126.58334491 -.00715331  00000-0 -22187-1 0  9994","MEAN_MOTION_DOT":"-0.00715331","MEAN_MOTION_DDOT":"0.0000000000000","NORAD_CAT_ID":"52090","OBJECT_ID":"2022-029C","ARG_OF_PERICENTER":"56.6328","PERIAPSIS":"458.644","CLASSIFICATION_TYPE":"U","RCS_SIZE":"LARGE","OBJECT_NAME":"STARLINK-3712","BSTAR":"-0.02218700000000","LAUNCH_DATE":"2022-03-19","RA_OF_ASC_NODE":"269.5287","PERIOD":"93.786","EPHEMERIS_TYPE":"0","INCLINATION":"53.2174","SEMIMAJOR_AXIS":"6837.825","ECCENTRICITY":"0.00015300","GP_ID":"202827054","MEAN_MOTION":"15.35414986","CENTER_NAME":"EARTH","MEAN_ANOMALY":"190.8577","OBJECT_TYPE":"PAYLOAD","FILE":"3431697","TLE_LINE2":"2 52090  53.2174 269.5287 0001530  56.6328 190.8577 15.35414986  8807","EPOCH":"2022-05-06T14:00:01.000224","ELEMENT_SET_NO":"999","SITE":"AFETR","REF_FRAME":"TEME"},{"MEAN_ANOMALY":"159.0071","OBJECT_TYPE":"PAYLOAD","SEMIMAJOR_AXIS":"6838.587","GP_ID":"202827002","ECCENTRICITY":"0.00014570","CENTER_NAME":"EARTH","MEAN_MOTION":"15.35158278","ELEMENT_SET_NO":"999","SITE":"AFETR","TLE_LINE2":"2 52091  53.2174 269.5289 0001457  64.4482 159.0071 15.35158278  8801","EPOCH":"2022-05-06T14:00:01.000224","REF_FRAME":"TEME","FILE":"3431697","MEAN_ELEMENT_THEORY":"SGP4","APOAPSIS":"461.449","TIME_SYSTEM":"UTC","MEAN_MOTION_DOT":"-0.00715145","MEAN_MOTION_DDOT":"0.0000000000000","NORAD_CAT_ID":"52091","OBJECT_ID":"2022-029D","TLE_LINE1":"1 52091U 22029D   22126.58334491 -.00715145  00000-0 -22365-1 0  9996","ARG_OF_PERICENTER":"64.4482","PERIAPSIS":"459.456","COUNTRY_CODE":"US","DECAY_DATE":null,"REV_AT_EPOCH":"880","EPHEMERIS_TYPE":"0","PERIOD":"93.801","INCLINATION":"53.2174","CLASSIFICATION_TYPE":"U","RCS_SIZE":"LARGE","OBJECT_NAME":"STARLINK-3713","BSTAR":"-0.02236500000000","RA_OF_ASC_NODE":"269.5289","LAUNCH_DATE":"2022-03-19"},{"MEAN_MOTION":"15.34778965","CENTER_NAME":"EARTH","ECCENTRICITY":"0.00012550","GP_ID":"202875033","SEMIMAJOR_AXIS":"6839.714","OBJECT_TYPE":"PAYLOAD","MEAN_ANOMALY":"190.7265","FILE":"3432641","REF_FRAME":"TEME","TLE_LINE2":"2 52092  53.2171 267.9712 0001255  87.8282 190.7265 15.34778965  8857","EPOCH":"2022-05-06T22:00:00.999936","SITE":"AFETR","ELEMENT_SET_NO":"999","REV_AT_EPOCH":"885","DECAY_DATE":null,"COUNTRY_CODE":"US","PERIAPSIS":"460.721","ARG_OF_PERICENTER":"87.8282","TLE_LINE1":"1 52092U 22029E   22126.91667824 -.00718565  00000-0 -22757-1 0  9997","MEAN_MOTION_DDOT":"0.0000000000000","OBJECT_ID":"2022-029E","MEAN_MOTION_DOT":"-0.00718565","NORAD_CAT_ID":"52092","TIME_SYSTEM":"UTC","APOAPSIS":"462.437","MEAN_ELEMENT_THEORY":"SGP4","LAUNCH_DATE":"2022-03-19","RA_OF_ASC_NODE":"267.9712","BSTAR":"-0.02275700000000","OBJECT_NAME":"STARLINK-3716","CLASSIFICATION_TYPE":"U","RCS_SIZE":"LARGE","INCLINATION":"53.2171","PERIOD":"93.825","EPHEMERIS_TYPE":"0"},{"SEMIMAJOR_AXIS":"6837.085","GP_ID":"202864663","ECCENTRICITY":"0.00014380","CENTER_NAME":"EARTH","MEAN_MOTION":"15.35664356","MEAN_ANOMALY":"210.0382","OBJECT_TYPE":"PAYLOAD","FILE":"3432208","SITE":"AFETR","ELEMENT_SET_NO":"999","TLE_LINE2":"2 52093  53.2174 269.5265 0001438  61.8105 210.0382 15.35664356  3671","EPOCH":"2022-05-06T14:00:01.000224","REF_FRAME":"TEME","COUNTRY_CODE":"US","DECAY_DATE":null,"REV_AT_EPOCH":"367","MEAN_ELEMENT_THEORY":"SGP4","APOAPSIS":"459.933","TIME_SYSTEM":"UTC","MEAN_MOTION_DDOT":"0.0000000000000","OBJECT_ID":"2022-029F","MEAN_MOTION_DOT":"-0.00715966","NORAD_CAT_ID":"52093","TLE_LINE1":"1 52093U 22029F   22126.58334491 -.00715966  00000-0 -22031-1 0  9999","ARG_OF_PERICENTER":"61.8105","PERIAPSIS":"457.967","CLASSIFICATION_TYPE":"U","RCS_SIZE":"LARGE","OBJECT_NAME":"STARLINK-3673","BSTAR":"-0.02203100000000","RA_OF_ASC_NODE":"269.5265","LAUNCH_DATE":"2022-03-19","EPHEMERIS_TYPE":"0","PERIOD":"93.770","INCLINATION":"53.2174"},{"BSTAR":"-0.02210400000000","RA_OF_ASC_NODE":"269.5282","LAUNCH_DATE":"2022-03-19","RCS_SIZE":"LARGE","CLASSIFICATION_TYPE":"U","OBJECT_NAME":"STARLINK-3714","EPHEMERIS_TYPE":"0","PERIOD":"93.778","INCLINATION":"53.2174","REV_AT_EPOCH":"367","COUNTRY_CODE":"US","DECAY_DATE":null,"ARG_OF_PERICENTER":"65.9086","PERIAPSIS":"458.337","MEAN_ELEMENT_THEORY":"SGP4","TIME_SYSTEM":"UTC","APOAPSIS":"460.281","MEAN_MOTION_DDOT":"0.0000000000000","OBJECT_ID":"2022-029G","MEAN_MOTION_DOT":"-0.00715572","NORAD_CAT_ID":"52094","TLE_LINE1":"1 52094U 22029G   22126.58334491 -.00715572  00000-0 -22104-1 0  9994","FILE":"3432208","ELEMENT_SET_NO":"999","SITE":"AFETR","EPOCH":"2022-05-06T14:00:01.000224","TLE_LINE2":"2 52094  53.2174 269.5282 0001421  65.9086 193.5415 15.35543387  3678","REF_FRAME":"TEME","CENTER_NAME":"EARTH","MEAN_MOTION":"15.35543387","SEMIMAJOR_AXIS":"6837.444","GP_ID":"202864170","ECCENTRICITY":"0.00014210","OBJECT_TYPE":"PAYLOAD","MEAN_ANOMALY":"193.5415"},{"FILE":"3432208","SITE":"AFETR","ELEMENT_SET_NO":"999","EPOCH":"2022-05-06T14:00:01.000224","TLE_LINE2":"2 52095  53.2175 269.5253 0001349  65.6337 229.9453 15.35921313  3678","REF_FRAME":"TEME","SEMIMAJOR_AXIS":"6836.322","GP_ID":"202864258","ECCENTRICITY":"0.00013490","CENTER_NAME":"EARTH","MEAN_MOTION":"15.35921313","MEAN_ANOMALY":"229.9453","OBJECT_TYPE":"PAYLOAD","RCS_SIZE":"LARGE","CLASSIFICATION_TYPE":"U","OBJECT_NAME":"STARLINK-3701","BSTAR":"-0.02187200000000","RA_OF_ASC_NODE":"269.5253","LAUNCH_DATE":"2022-03-19","EPHEMERIS_TYPE":"0","PERIOD":"93.755","INCLINATION":"53.2175","COUNTRY_CODE":"US","DECAY_DATE":null,"REV_AT_EPOCH":"367","MEAN_ELEMENT_THEORY":"SGP4","APOAPSIS":"459.110","TIME_SYSTEM":"UTC","MEAN_MOTION_DDOT":"0.0000000000000","MEAN_MOTION_DOT":"-0.00716649","OBJECT_ID":"2022-029H","NORAD_CAT_ID":"52095","TLE_LINE1":"1 52095U 22029H   22126.58334491 -.00716649  00000-0 -21872-1 0  9992","ARG_OF_PERICENTER":"65.6337","PERIAPSIS":"457.265"},{"REV_AT_EPOCH":"890","DECAY_DATE":null,"COUNTRY_CODE":"US","PERIAPSIS":"394.291","ARG_OF_PERICENTER":"82.8413","TLE_LINE1":"1 52096U 22029J   22126.83334491 -.00710091  00000-0 -10364-1 0  9990","MEAN_MOTION_DDOT":"0.0000000000000","MEAN_MOTION_DOT":"-0.00710091","NORAD_CAT_ID":"52096","OBJECT_ID":"2022-029J","APOAPSIS":"395.712","TIME_SYSTEM":"UTC","MEAN_ELEMENT_THEORY":"SGP4","LAUNCH_DATE":"2022-03-19","RA_OF_ASC_NODE":"263.4849","BSTAR":"-0.01036400000000","OBJECT_NAME":"STARLINK-3717","RCS_SIZE":"LARGE","CLASSIFICATION_TYPE":"U","INCLINATION":"53.2173","PERIOD":"92.458","EPHEMERIS_TYPE":"0","MEAN_MOTION":"15.57464052","CENTER_NAME":"EARTH","ECCENTRICITY":"0.00010490","GP_ID":"202867476","SEMIMAJOR_AXIS":"6773.136","OBJECT_TYPE":"PAYLOAD","MEAN_ANOMALY":"333.1782","FILE":"3432364","REF_FRAME":"TEME","TLE_LINE2":"2 52096  53.2173 263.4849 0001049  82.8413 333.1782 15.57464052  8904","EPOCH":"2022-05-06T20:00:01.000224","ELEMENT_SET_NO":"999","SITE":"AFETR"}];
